[{"OBJECT_NAME":"STARLINK-1134","OBJECT_ID":"2020-006E","EPOCH":"2026-03-10T00:00:02.999808","MEAN_MOTION":15.43845281,"ECCENTRICITY":0.00082945,"INCLINATION":53.0316,"RA_OF_ASC_NODE":236.8452,"ARG_OF_PERICENTER":176.7165,"MEAN_ANOMALY":97.2944,"EPHEMERIS_TYPE":0,"CLASSIFICATION_TYPE":"U","NORAD_CAT_ID":45048,"ELEMENT_SET_NO":999,"REV_AT_EPOCH":589,"BSTAR":0.0021626452,"MEAN_MOTION_DOT":0.00100606,"MEAN_MOTION_DDOT":0},{"OBJECT_NAME":"GHGSAT-C7","OBJECT_ID":"2023-054AH","EPOCH":"2026-03-09T23:00:36.628128","MEAN_MOTION":15.47649027,"ECCENTRICITY":0.00094471,"INCLINATION":97.3074,"RA_OF_ASC_NODE":336.1963,"ARG_OF_PERICENTER":47.2548,"MEAN_ANOMALY":312.9496,"EPHEMERIS_TYPE":0,"CLASSIFICATION_TYPE":"U","NORAD_CAT_ID":56209,"ELEMENT_SET_NO":999,"REV_AT_EPOCH":16303,"BSTAR":0.00028683651,"MEAN_MOTION_DOT":0.00014749,"MEAN_MOTION_DDOT":0}]
